{"fetched_at":"2026-07-15T17:47:09.148Z","source":"https://celestrak.org/NORAD/elements/gp.php?NAME=GHGSAT&FORMAT=JSON","constellation":"ghgsat","records":[{"OBJECT_NAME":"GHGSAT-C1","OBJECT_ID":"2020-061G","EPOCH":"2026-07-15T03:56:26.547360","CLASSIFICATION_TYPE":"U","MEAN_MOTION":15.73447423,"ECCENTRICITY":0.0000955,"INCLINATION":97.21,"RA_OF_ASC_NODE":282.249,"ARG_OF_PERICENTER":176.8824,"MEAN_ANOMALY":183.2447,"EPHEMERIS_TYPE":0,"NORAD_CAT_ID":46278,"ELEMENT_SET_NO":999,"REV_AT_EPOCH":32787,"BSTAR":0.00021867,"MEAN_MOTION_DOT":0.00030246,"MEAN_MOTION_DDOT":0},{"OBJECT_NAME":"GHGSAT-C2","OBJECT_ID":"2021-006DA","EPOCH":"2026-07-15T03:02:45.066336","CLASSIFICATION_TYPE":"U","MEAN_MOTION":15.38107441,"ECCENTRICITY":0.0006722,"INCLINATION":97.2131,"RA_OF_ASC_NODE":242.9155,"ARG_OF_PERICENTER":75.8432,"MEAN_ANOMALY":284.3559,"EPHEMERIS_TYPE":0,"NORAD_CAT_ID":47509,"ELEMENT_SET_NO":999,"REV_AT_EPOCH":30414,"BSTAR":0.000098127,"MEAN_MOTION_DOT":0.00003602,"MEAN_MOTION_DDOT":0},{"OBJECT_NAME":"GHGSAT-C3","OBJECT_ID":"2022-057F","EPOCH":"2026-07-15T05:07:41.094912","CLASSIFICATION_TYPE":"U","MEAN_MOTION":15.34678901,"ECCENTRICITY":0.0006301,"INCLINATION":97.6631,"RA_OF_ASC_NODE":342.9313,"ARG_OF_PERICENTER":35.1621,"MEAN_ANOMALY":325.0036,"EPHEMERIS_TYPE":0,"NORAD_CAT_ID":52737,"ELEMENT_SET_NO":999,"REV_AT_EPOCH":22983,"BSTAR":0.00010482,"MEAN_MOTION_DOT":0.00003438,"MEAN_MOTION_DDOT":0},{"OBJECT_NAME":"GHGSAT-C5","OBJECT_ID":"2022-057N","EPOCH":"2026-07-15T04:30:26.994816","CLASSIFICATION_TYPE":"U","MEAN_MOTION":15.34655442,"ECCENTRICITY":0.0007014,"INCLINATION":97.6717,"RA_OF_ASC_NODE":344.5107,"ARG_OF_PERICENTER":32.2061,"MEAN_ANOMALY":327.9608,"EPHEMERIS_TYPE":0,"NORAD_CAT_ID":52744,"ELEMENT_SET_NO":999,"REV_AT_EPOCH":22983,"BSTAR":0.00011043,"MEAN_MOTION_DOT":0.00003625,"MEAN_MOTION_DDOT":0},{"OBJECT_NAME":"GHGSAT-C4","OBJECT_ID":"2022-057Q","EPOCH":"2026-07-15T04:03:38.220768","CLASSIFICATION_TYPE":"U","MEAN_MOTION":15.34665525,"ECCENTRICITY":0.000617,"INCLINATION":97.6558,"RA_OF_ASC_NODE":341.6881,"ARG_OF_PERICENTER":19.3212,"MEAN_ANOMALY":340.8263,"EPHEMERIS_TYPE":0,"NORAD_CAT_ID":52746,"ELEMENT_SET_NO":999,"REV_AT_EPOCH":22983,"BSTAR":0.00010743,"MEAN_MOTION_DOT":0.00003524,"MEAN_MOTION_DDOT":0},{"OBJECT_NAME":"GHGSAT-C8","OBJECT_ID":"2023-054J","EPOCH":"2026-07-15T04:23:07.764864","CLASSIFICATION_TYPE":"U","MEAN_MOTION":15.53771232,"ECCENTRICITY":0.0002916,"INCLINATION":97.2965,"RA_OF_ASC_NODE":105.8956,"ARG_OF_PERICENTER":1.818,"MEAN_ANOMALY":358.3084,"EPHEMERIS_TYPE":0,"NORAD_CAT_ID":56186,"ELEMENT_SET_NO":999,"REV_AT_EPOCH":18278,"BSTAR":0.00015176,"MEAN_MOTION_DOT":0.00009631,"MEAN_MOTION_DDOT":0},{"OBJECT_NAME":"GHGSAT-C6","OBJECT_ID":"2023-054AC","EPOCH":"2026-07-15T05:07:13.128960","CLASSIFICATION_TYPE":"U","MEAN_MOTION":15.53747915,"ECCENTRICITY":0.0003483,"INCLINATION":97.3027,"RA_OF_ASC_NODE":106.6301,"ARG_OF_PERICENTER":306.8654,"MEAN_ANOMALY":53.228,"EPHEMERIS_TYPE":0,"NORAD_CAT_ID":56204,"ELEMENT_SET_NO":999,"REV_AT_EPOCH":18280,"BSTAR":0.00014481,"MEAN_MOTION_DOT":0.00009178,"MEAN_MOTION_DDOT":0},{"OBJECT_NAME":"GHGSAT-C7","OBJECT_ID":"2023-054AH","EPOCH":"2026-07-15T05:05:19.004928","CLASSIFICATION_TYPE":"U","MEAN_MOTION":15.50445013,"ECCENTRICITY":0.0004984,"INCLINATION":97.2975,"RA_OF_ASC_NODE":104.9464,"ARG_OF_PERICENTER":304.0265,"MEAN_ANOMALY":56.0513,"EPHEMERIS_TYPE":0,"NORAD_CAT_ID":56209,"ELEMENT_SET_NO":999,"REV_AT_EPOCH":18273,"BSTAR":0.00011602,"MEAN_MOTION_DOT":0.0000651,"MEAN_MOTION_DDOT":0},{"OBJECT_NAME":"GHGSAT-C12","OBJECT_ID":"2025-135B","EPOCH":"2026-07-15T03:41:41.794080","CLASSIFICATION_TYPE":"U","MEAN_MOTION":15.20444802,"ECCENTRICITY":0.0006406,"INCLINATION":97.4771,"RA_OF_ASC_NODE":310.7189,"ARG_OF_PERICENTER":81.1046,"MEAN_ANOMALY":279.0914,"EPHEMERIS_TYPE":0,"NORAD_CAT_ID":64529,"ELEMENT_SET_NO":999,"REV_AT_EPOCH":5907,"BSTAR":0.000086145,"MEAN_MOTION_DOT":0.00001811,"MEAN_MOTION_DDOT":0},{"OBJECT_NAME":"GHGSAT-C13","OBJECT_ID":"2025-135W","EPOCH":"2026-07-15T03:24:04.150080","CLASSIFICATION_TYPE":"U","MEAN_MOTION":15.21402357,"ECCENTRICITY":0.0001912,"INCLINATION":97.4804,"RA_OF_ASC_NODE":311.3217,"ARG_OF_PERICENTER":67.6246,"MEAN_ANOMALY":292.5192,"EPHEMERIS_TYPE":0,"NORAD_CAT_ID":64548,"ELEMENT_SET_NO":999,"REV_AT_EPOCH":5910,"BSTAR":0.00014385,"MEAN_MOTION_DOT":0.00003157,"MEAN_MOTION_DDOT":0}]}
