GHGSAT-C1               
1 46278U 20061G   26196.16419615  .00030246  00000+0  21867-3 0  9994
2 46278  97.2100 282.2490 0000955 176.8824 183.2447 15.73447423327876
GHGSAT-C2               
1 47509U 21006DA  26196.12691049  .00003602  00000+0  98127-4 0  9991
2 47509  97.2131 242.9155 0006722  75.8432 284.3559 15.38107441304146
GHGSAT-C3               
1 52737U 22057F   26196.21367008  .00003438  00000+0  10482-3 0  9996
2 52737  97.6631 342.9313 0006301  35.1621 325.0036 15.34678901229838
GHGSAT-C5               
1 52744U 22057N   26196.18781244  .00003625  00000+0  11043-3 0  9994
2 52744  97.6717 344.5107 0007014  32.2061 327.9608 15.34655442229839
GHGSAT-C4               
1 52746U 22057Q   26196.16919237  .00003524  00000+0  10743-3 0  9993
2 52746  97.6558 341.6881 0006170  19.3212 340.8263 15.34665525229831
GHGSAT-C8               
1 56186U 23054J   26196.18272876  .00009631  00000+0  15176-3 0  9996
2 56186  97.2965 105.8956 0002916   1.8180 358.3084 15.53771232182789
GHGSAT-C6               
1 56204U 23054AC  26196.21334640  .00009178  00000+0  14481-3 0  9993
2 56204  97.3027 106.6301 0003483 306.8654  53.2280 15.53747915182800
GHGSAT-C7               
1 56209U 23054AH  26196.21202552  .00006510  00000+0  11602-3 0  9993
2 56209  97.2975 104.9464 0004984 304.0265  56.0513 15.50445013182735
GHGSAT-C12              
1 64529U 25135B   26196.15395595  .00001811  00000+0  86145-4 0  9996
2 64529  97.4771 310.7189 0006406  81.1046 279.0914 15.20444802 59071
GHGSAT-C13              
1 64548U 25135W   26196.14171470  .00003157  00000+0  14385-3 0  9991
2 64548  97.4804 311.3217 0001912  67.6246 292.5192 15.21402357 59108
